start=new Date('2023-05-17T00:00:00.000Z').valueOf();
sats=[{"COUNTRY_CODE":"US","MEAN_MOTION_DDOT":"0.0000000000000","OBJECT_NAME":"STARLINK-1291","ARG_OF_PERICENTER":"93.5035","MEAN_ANOMALY":"266.6123","TLE_LINE2":"2 45393  53.0549  80.9122 0001480  93.5035 266.6123 15.06407458174842","PERIOD":"95.592","ELEMENT_SET_NO":"999","CLASSIFICATION_TYPE":"U","RCS_SIZE":"LARGE","DECAY_DATE":null,"MEAN_ELEMENT_THEORY":"SGP4","REF_FRAME":"TEME","TIME_SYSTEM":"UTC","BSTAR":"0.00108110000000","INCLINATION":"53.0549","TLE_LINE1":"1 45393U 20019AK  23136.81813672  .00015861  00000-0  10811-2 0  9991","PERIAPSIS":"546.166","SEMIMAJOR_AXIS":"6925.326","NORAD_CAT_ID":"45393","GP_ID":"231994174","OBJECT_TYPE":"PAYLOAD","RA_OF_ASC_NODE":"80.9122","MEAN_MOTION_DOT":"0.00015861","REV_AT_EPOCH":"17484","SITE":"AFETR","MEAN_MOTION":"15.06407458","FILE":"3909742","EPOCH":"2023-05-16T19:38:07.012608","APOAPSIS":"548.216","OBJECT_ID":"2020-019AK","CENTER_NAME":"EARTH","LAUNCH_DATE":"2020-03-18","ECCENTRICITY":"0.00014800","EPHEMERIS_TYPE":"0"},{"MEAN_ELEMENT_THEORY":"SGP4","REF_FRAME":"TEME","TIME_SYSTEM":"UTC","CLASSIFICATION_TYPE":"U","RCS_SIZE":"LARGE","DECAY_DATE":null,"ELEMENT_SET_NO":"999","PERIOD":"95.593","MEAN_ANOMALY":"261.4144","TLE_LINE2":"2 45394  53.0558  83.4513 0001257  98.6988 261.4144 15.06389222174732","ARG_OF_PERICENTER":"98.6988","MEAN_MOTION_DDOT":"0.0000000000000","OBJECT_NAME":"STARLINK-1292","COUNTRY_CODE":"US","EPHEMERIS_TYPE":"0","CENTER_NAME":"EARTH","LAUNCH_DATE":"2020-03-18","ECCENTRICITY":"0.00012570","MEAN_MOTION":"15.06389222","EPOCH":"2023-05-16T06:00:44.031168","FILE":"3909472","OBJECT_ID":"2020-019AL","APOAPSIS":"548.117","RA_OF_ASC_NODE":"83.4513","OBJECT_TYPE":"PAYLOAD","MEAN_MOTION_DOT":"0.00001657","REV_AT_EPOCH":"17473","SITE":"AFETR","GP_ID":"231962441","SEMIMAJOR_AXIS":"6925.382","NORAD_CAT_ID":"45394","BSTAR":"0.00013011000000","INCLINATION":"53.0558","TLE_LINE1":"1 45394U 20019AL  23136.25050962  .00001657  00000-0  13011-3 0  9999","PERIAPSIS":"546.376"},{"MEAN_ELEMENT_THEORY":"SGP4","REF_FRAME":"TEME","TIME_SYSTEM":"UTC","PERIOD":"95.592","ELEMENT_SET_NO":"999","CLASSIFICATION_TYPE":"U","RCS_SIZE":"LARGE","DECAY_DATE":null,"ARG_OF_PERICENTER":"97.9975","MEAN_ANOMALY":"262.1132","TLE_LINE2":"2 45395  53.0542  84.2200 0001038  97.9975 262.1132 15.06402789174158","COUNTRY_CODE":"US","MEAN_MOTION_DDOT":"0.0000000000000","OBJECT_NAME":"STARLINK-1297","CENTER_NAME":"EARTH","LAUNCH_DATE":"2020-03-18","ECCENTRICITY":"0.00010380","EPHEMERIS_TYPE":"0","RA_OF_ASC_NODE":"84.2200","OBJECT_TYPE":"PAYLOAD","MEAN_MOTION_DOT":"0.00005235","REV_AT_EPOCH":"17415","SITE":"AFETR","MEAN_MOTION":"15.06402789","EPOCH":"2023-05-16T01:56:33.617760","FILE":"3909472","APOAPSIS":"547.924","OBJECT_ID":"2020-019AM","GP_ID":"231961700","BSTAR":"0.00037006000000","INCLINATION":"53.0542","TLE_LINE1":"1 45395U 20019AM  23136.08094465  .00005235  00000-0  37006-3 0  9993","PERIAPSIS":"546.486","SEMIMAJOR_AXIS":"6925.340","NORAD_CAT_ID":"45395"},{"BSTAR":"0.00015990000000","INCLINATION":"53.0547","TLE_LINE1":"1 45396U 20019AN  23136.12887008  .00002101  00000-0  15990-3 0  9999","PERIAPSIS":"546.159","SEMIMAJOR_AXIS":"6925.361","NORAD_CAT_ID":"45396","GP_ID":"231961950","OBJECT_TYPE":"PAYLOAD","RA_OF_ASC_NODE":"84.0087","MEAN_MOTION_DOT":"0.00002101","REV_AT_EPOCH":"17469","SITE":"AFETR","MEAN_MOTION":"15.06395950","EPOCH":"2023-05-16T03:05:34.374912","FILE":"3909472","APOAPSIS":"548.293","OBJECT_ID":"2020-019AN","LAUNCH_DATE":"2020-03-18","CENTER_NAME":"EARTH","ECCENTRICITY":"0.00015410","EPHEMERIS_TYPE":"0","COUNTRY_CODE":"US","MEAN_MOTION_DDOT":"0.0000000000000","OBJECT_NAME":"STARLINK-1303","ARG_OF_PERICENTER":"92.3506","MEAN_ANOMALY":"267.7659","TLE_LINE2":"2 45396  53.0547  84.0087 0001541  92.3506 267.7659 15.06395950174698","ELEMENT_SET_NO":"999","PERIOD":"95.592","CLASSIFICATION_TYPE":"U","RCS_SIZE":"LARGE","DECAY_DATE":null,"MEAN_ELEMENT_THEORY":"SGP4","REF_FRAME":"TEME","TIME_SYSTEM":"UTC"},{"EPHEMERIS_TYPE":"0","CENTER_NAME":"EARTH","LAUNCH_DATE":"2020-03-18","ECCENTRICITY":"0.00012890","MEAN_MOTION":"15.06403614","APOAPSIS":"548.095","OBJECT_ID":"2020-019AP","FILE":"3909742","EPOCH":"2023-05-16T20:52:25.604256","MEAN_MOTION_DOT":"0.00007001","RA_OF_ASC_NODE":"80.6844","OBJECT_TYPE":"PAYLOAD","SITE":"AFETR","REV_AT_EPOCH":"17491","GP_ID":"231994674","SEMIMAJOR_AXIS":"6925.337","NORAD_CAT_ID":"45397","INCLINATION":"53.0545","BSTAR":"0.00048839000000","PERIAPSIS":"546.310","TLE_LINE1":"1 45397U 20019AP  23136.86974079  .00007001  00000-0  48839-3 0  9998","REF_FRAME":"TEME","MEAN_ELEMENT_THEORY":"SGP4","TIME_SYSTEM":"UTC","CLASSIFICATION_TYPE":"U","DECAY_DATE":null,"RCS_SIZE":"LARGE","PERIOD":"95.592","ELEMENT_SET_NO":"999","MEAN_ANOMALY":"277.0296","TLE_LINE2":"2 45397  53.0545  80.6844 0001289  83.0840 277.0296 15.06403614174910","ARG_OF_PERICENTER":"83.0840","MEAN_MOTION_DDOT":"0.0000000000000","OBJECT_NAME":"STARLINK-1307","COUNTRY_CODE":"US"},{"ELEMENT_SET_NO":"999","PERIOD":"95.592","CLASSIFICATION_TYPE":"U","RCS_SIZE":"LARGE","DECAY_DATE":null,"MEAN_ELEMENT_THEORY":"SGP4","REF_FRAME":"TEME","TIME_SYSTEM":"UTC","COUNTRY_CODE":"US","MEAN_MOTION_DDOT":"0.0000000000000","OBJECT_NAME":"STARLINK-1312","ARG_OF_PERICENTER":"113.2293","MEAN_ANOMALY":"246.8844","TLE_LINE2":"2 45398  53.0547  83.9856 0001411 113.2293 246.8844 15.06399422174731","RA_OF_ASC_NODE":"83.9856","OBJECT_TYPE":"PAYLOAD","MEAN_MOTION_DOT":"0.00005820","REV_AT_EPOCH":"17473","SITE":"AFETR","MEAN_MOTION":"15.06399422","EPOCH":"2023-05-16T03:10:52.904064","FILE":"3909472","APOAPSIS":"548.192","OBJECT_ID":"2020-019AQ","LAUNCH_DATE":"2020-03-18","CENTER_NAME":"EARTH","ECCENTRICITY":"0.00014110","EPHEMERIS_TYPE":"0","BSTAR":"0.00040930000000","INCLINATION":"53.0547","TLE_LINE1":"1 45398U 20019AQ  23136.13255676  .00005820  00000-0  40930-3 0  9995","PERIAPSIS":"546.238","SEMIMAJOR_AXIS":"6925.350","NORAD_CAT_ID":"45398","GP_ID":"231962941"},{"RA_OF_ASC_NODE":"73.5095","OBJECT_TYPE":"PAYLOAD","MEAN_MOTION_DOT":"0.00009689","REV_AT_EPOCH":"17494","SITE":"AFETR","MEAN_MOTION":"15.06404335","EPOCH":"2023-05-16T05:46:08.039712","FILE":"3909472","APOAPSIS":"548.009","OBJECT_ID":"2020-019AR","CENTER_NAME":"EARTH","LAUNCH_DATE":"2020-03-18","ECCENTRICITY":"0.00011680","EPHEMERIS_TYPE":"0","BSTAR":"0.00066840000000","INCLINATION":"53.0550","TLE_LINE1":"1 45399U 20019AR  23136.24037083  .00009689  00000-0  66840-3 0  9993","PERIAPSIS":"546.391","SEMIMAJOR_AXIS":"6925.335","NORAD_CAT_ID":"45399","GP_ID":"231961202","ELEMENT_SET_NO":"999","PERIOD":"95.592","CLASSIFICATION_TYPE":"U","RCS_SIZE":"LARGE","DECAY_DATE":null,"MEAN_ELEMENT_THEORY":"SGP4","REF_FRAME":"TEME","TIME_SYSTEM":"UTC","COUNTRY_CODE":"US","MEAN_MOTION_DDOT":"0.0000000000000","OBJECT_NAME":"STARLINK-1255","ARG_OF_PERICENTER":"90.2290","MEAN_ANOMALY":"269.8833","TLE_LINE2":"2 45399  53.0550  73.5095 0001168  90.2290 269.8833 15.06404335174942"},{"ECCENTRICITY":"0.00054810","LAUNCH_DATE":"2020-03-18","CENTER_NAME":"EARTH","EPHEMERIS_TYPE":"0","SITE":"AFETR","REV_AT_EPOCH":"17486","MEAN_MOTION_DOT":"0.00024623","RA_OF_ASC_NODE":"72.9674","OBJECT_TYPE":"PAYLOAD","APOAPSIS":"536.797","OBJECT_ID":"2020-019AS","FILE":"3909687","EPOCH":"2023-05-16T01:20:35.657664","MEAN_MOTION":"15.11046405","GP_ID":"231973802","TLE_LINE1":"1 45400U 20019AS  23136.05596826  .00024623  00000-0  14678-2 0  9996","PERIAPSIS":"529.222","INCLINATION":"53.0565","BSTAR":"0.00146780000000","NORAD_CAT_ID":"45400","SEMIMAJOR_AXIS":"6911.144","TIME_SYSTEM":"UTC","REF_FRAME":"TEME","MEAN_ELEMENT_THEORY":"SGP4","PERIOD":"95.298","ELEMENT_SET_NO":"999","DECAY_DATE":null,"RCS_SIZE":"LARGE","CLASSIFICATION_TYPE":"U","ARG_OF_PERICENTER":"73.4174","TLE_LINE2":"2 45400  53.0565  72.9674 0005481  73.4174 286.7418 15.11046405174867","MEAN_ANOMALY":"286.7418","COUNTRY_CODE":"US","OBJECT_NAME":"STARLINK-1213","MEAN_MOTION_DDOT":"0.0000000000000"},{"ELEMENT_SET_NO":"999","PERIOD":"95.592","CLASSIFICATION_TYPE":"U","DECAY_DATE":null,"RCS_SIZE":"LARGE","REF_FRAME":"TEME","MEAN_ELEMENT_THEORY":"SGP4","TIME_SYSTEM":"UTC","COUNTRY_CODE":"US","MEAN_MOTION_DDOT":"0.0000000000000","OBJECT_NAME":"STARLINK-1256","ARG_OF_PERICENTER":"86.6139","MEAN_ANOMALY":"273.4966","TLE_LINE2":"2 45401  53.0541  74.0501 0001014  86.6139 273.4966 15.06407099174921","MEAN_MOTION_DOT":"0.00008698","OBJECT_TYPE":"PAYLOAD","RA_OF_ASC_NODE":"74.0501","SITE":"AFETR","REV_AT_EPOCH":"17492","MEAN_MOTION":"15.06407099","OBJECT_ID":"2020-019AT","APOAPSIS":"547.894","EPOCH":"2023-05-16T02:50:58.439616","FILE":"3909472","CENTER_NAME":"EARTH","LAUNCH_DATE":"2020-03-18","ECCENTRICITY":"0.00010140","EPHEMERIS_TYPE":"0","INCLINATION":"53.0541","BSTAR":"0.00060195000000","TLE_LINE1":"1 45401U 20019AT  23136.11873194  .00008698  00000-0  60195-3 0  9990","PERIAPSIS":"546.490","SEMIMAJOR_AXIS":"6925.327","NORAD_CAT_ID":"45401","GP_ID":"231962197"},{"SITE":"AFETR","REV_AT_EPOCH":"17504","MEAN_MOTION_DOT":"0.00007334","OBJECT_TYPE":"PAYLOAD","RA_OF_ASC_NODE":"70.7836","OBJECT_ID":"2020-019AU","APOAPSIS":"548.142","FILE":"3909742","EPOCH":"2023-05-16T20:15:14.315616","MEAN_MOTION":"15.06407548","ECCENTRICITY":"0.00013740","LAUNCH_DATE":"2020-03-18","CENTER_NAME":"EARTH","EPHEMERIS_TYPE":"0","PERIAPSIS":"546.239","TLE_LINE1":"1 45402U 20019AU  23136.84391569  .00007334  00000-0  51065-3 0  9994","INCLINATION":"53.0536","BSTAR":"0.00051065000000","NORAD_CAT_ID":"45402","SEMIMAJOR_AXIS":"6925.325","GP_ID":"231994927","ELEMENT_SET_NO":"999","PERIOD":"95.592","DECAY_DATE":null,"RCS_SIZE":"LARGE","CLASSIFICATION_TYPE":"U","TIME_SYSTEM":"UTC","REF_FRAME":"TEME","MEAN_ELEMENT_THEORY":"SGP4","COUNTRY_CODE":"US","OBJECT_NAME":"STARLINK-1257","MEAN_MOTION_DDOT":"0.0000000000000","ARG_OF_PERICENTER":"81.2094","TLE_LINE2":"2 45402  53.0536  70.7836 0001374  81.2094 278.9050 15.06407548175047","MEAN_ANOMALY":"278.9050"}];
